ORBITAL FACTORY 2 (OF-2)
1 45113U 19071C   22178.26038641  .00021905  00000+0  44981-3 0  9997
2 45113  51.6395  11.0987 0009883 205.2228 154.8278 15.45890404134890
M2 PATHFINDER           
1 45727U 20037E   22178.47916684  .00000678  00000+0  72227-4 0  9996
2 45727  97.7344 353.7583 0013065   8.7816 351.3622 14.92046755108329
NETSAT-4                
1 46504U 20068U   22178.55890264  .00002307  00000+0  17370-3 0  9996
2 46504  97.7271 118.3293 0010197 296.8131  63.2038 15.03490075 95560
NETSAT-3                
1 46505U 20068V   22178.50799971  .00003192  00000+0  23882-3 0  9993
2 46505  97.7245 118.1977 0010081 305.1812  54.8441 15.03445344 95564
NETSAT-1                
1 46506U 20068W   22178.45809404  .00001909  00000+0  14499-3 0  9999
2 46506  97.7258 118.0822 0009497 322.5165  37.5396 15.03366343 95557
NETSAT-2                
1 46507U 20068X   22178.53427928  .00001544  00000+0  11825-3 0  9991
2 46507  97.7261 118.1510 0008490 330.3641  29.7053 15.03351472 95511
SPOC                    
1 46921U 98067RR  22175.44526769  .05489333  12350-4  66926-3 0  9994
2 46921  51.6130 248.2954 0008877 320.6564  39.3814 16.35363181 93131
NEUTRON-1               
1 46923U 98067RT  22176.41526330  .12845636  12650-4  26350-3 0  9998
2 46923  51.6170 243.5264 0005175 317.3043  42.7583 16.46729377 93330
SAI-1 NANOCONNECT-2     
1 47701U 21015C   22178.45882454  .00008902  00000+0  33270-3 0  9994
2 47701  97.4236 255.3392 0012327  64.8644 295.3873 15.27517214 73741
TSURU                   
1 47927U 98067SD  22178.64099719  .00808795  36349-3  89968-3 0  9992
2 47927  51.6243 246.5205 0012801 347.9447  12.1258 16.08730281 73438
MAYA-2                  
1 47929U 98067SF  22178.47417515  .00766775  31231-3  98092-3 0  9997
2 47929  51.6239 247.6622 0012308 348.2676  11.8048 16.06547297 73366
GUARANISAT-1            
1 47931U 98067SH  22178.43733004  .00909078  46902-3  10147-2 0  9990
2 47931  51.6225 247.4165 0012605 347.2294  12.8398 16.08703932 73405
BEESAT-6                
1 47957U 21022AB  22178.68088403  .00005108  00000+0  32787-3 0  9999
2 47957  97.5270  78.0858 0021954 107.8366 313.6863 15.08710425 69347
SMOG-1                  
1 47964U 21022AJ  22178.44621863  .00004895  00000+0  30259-3 0  9998
2 47964  97.5309  78.9048 0020530 100.4816 259.8728 15.10139655 68394
MMSATS-1                
1 47976U 98067SJ  22175.88838600  .00022547  00000+0  28543-3 0  9995
2 47976  51.6425 287.5930 0001026  19.9868 340.1165 15.59400158 71424
BCCSAT-1                
1 48041U 21022AK  22178.50332582  .00003953  00000+0  25122-3 0  9996
2 48041  97.5311  78.5714 0017145  98.4513 261.8660 15.09295410 68352
BEESAT-5                
1 48083U 21022AM  22178.67208593  .00005988  00000+0  38194-3 0  9997
2 48083  97.5273  78.0768 0021756 108.7941 308.3993 15.08874669 68479
BEESAT-7                
1 48084U 21022AN  22178.67533157  .00005686  00000+0  36380-3 0  9995
2 48084  97.5283  78.0865 0021969 107.8449 308.9360 15.08777393 68063
BEESAT-8                
1 48085U 21022AP  22178.55537419  .00005760  00000+0  36924-3 0  9995
2 48085  97.5275  77.9679 0022117 109.0786  11.7939 15.08700798 68606
RAMSAT                  
1 48850U 98067SL  22178.52118927  .00064888  00000+0  48685-3 0  9997
2 48850  51.6364 266.1584 0002722   1.4029 358.6976 15.71983558 58912
BD-28                   
1 48867U 98067SN  22178.48097452  .00088905  00000+0  54748-3 0  9992
2 48867  51.6290 263.5725 0004111 333.4154  26.6635 15.76433616 57695
BINAR-1                 
1 49272U 98067SR  22178.47366247  .00073745  00000+0  55070-3 0  9998
2 49272  51.6337 270.3102 0006967 336.4585  23.6093 15.72018246 41248
MAYA-3                  
1 49273U 98067SS  22178.48463668  .00193085  00000+0  81467-3 0  9994
2 49273  51.6295 265.0791 0010584 340.2623  19.7969 15.84266673 41311
MAYA-4                  
1 49274U 98067ST  22178.45199618  .00195609  00000+0  86708-3 0  9990
2 49274  51.6321 265.6193 0009822 337.7341  22.3234 15.83230941 41307
CUAVA-1                 
1 49275U 98067SU  22178.70474045  .00138056  00000+0  80271-3 0  9991
2 49275  51.6334 266.3032 0008499 340.1618 146.0294 15.77504457 41260
BEIJING 1               
1 28890U 05043A   22178.67556683  .00000114  00000+0  32350-4 0  9997
2 28890  98.1196 300.8933 0016225 138.9395 221.3031 14.61459444888630
HJ-1A                   
1 33320U 08041A   22178.84727712  .00000284  00000+0  46242-4 0  9997
2 33320  97.6763 211.4187 0020498 194.2915 165.7705 14.77857350743922
HJ-1B                   
1 33321U 08041B   22178.79422375  .00000645  00000+0  96017-4 0  9995
2 33321  97.6937 214.9532 0033240 214.6524 145.2503 14.77755570743919
YAOGAN 4                
1 33446U 08061A   22178.74032675  .00000316  00000+0  51421-4 0  9995
2 33446  97.8176 118.5562 0017711  99.9451 260.3759 14.77390476731115
DEIMOS-1                
1 35681U 09041A   22175.87341033  .00000134  00000+0  28708-4 0  9999
2 35681  97.7145  26.5710 0001672 148.0245 212.1067 14.72060839692869
UK-DMC 2                
1 35683U 09041C   22175.83438053  .00000396  00000+0  71264-4 0  9991
2 35683  97.6988 348.5158 0001121 103.5068 256.6266 14.71422777692592
RISAT 1                 
1 38248U 12017A   22178.78973158  .00002322  00000+0  13894-3 0  9990
2 38248  97.5512 190.0498 0003071 199.0094 161.1023 15.12022508560405
DMC3-FM1                
1 40715U 15032A   22178.79591296  .00000334  00000+0  48447-4 0  9996
2 40715  97.8466  65.4109 0007071 117.9200 242.2731 14.82133227374827
DMC3-FM2                
1 40716U 15032B   22178.75095017  .00000343  00000+0  49635-4 0  9993
2 40716  97.8509  66.0145 0008967 122.1821 238.0265 14.82124809374826
DMC3-FM3                
1 40717U 15032C   22178.77386516  .00000335  00000+0  48602-4 0  9997
2 40717  97.8541  66.9515 0010938 121.8622 238.3657 14.82152692374828
NOAA 15                 
1 25338U 98030A   22178.73325718  .00000142  00000+0  77468-4 0  9999
2 25338  98.6429 208.1342 0009146 267.2002  92.8132 14.26143432254736
DMSP 5D-3 F15 (USA 147) 
1 25991U 99067A   22178.58588115  .00000050  00000+0  48018-4 0  9997
2 25991  99.0520 170.3349 0010558 154.4206 318.9694 14.16547752165207
METEOSAT-8 (MSG-1)      
1 27509U 02040B   22178.20009742  .00000136  00000+0  00000+0 0  9991
2 27509   8.0553  50.6121 0001195   5.4259 332.6671  1.00275641 72702
DMSP 5D-3 F16 (USA 172) 
1 28054U 03048A   22178.73873446 -.00000024  00000+0  11487-4 0  9997
2 28054  98.9877 169.6021 0006318 292.7762 240.1421 14.13675735964473
NOAA 18                 
1 28654U 05018A   22178.75890379  .00000137  00000+0  98048-4 0  9990
2 28654  98.9488 249.1867 0013233 304.7174  55.2751 14.12746577881521
METEOSAT-9 (MSG-2)      
1 28912U 05049B   22178.20088237  .00000131  00000+0  00000+0 0  9993
2 28912   6.0415  66.2531 0001596 350.6264 336.3689  1.00269662 60488
EWS-G1 (GOES 13)        
1 29155U 06018A   22178.49101399  .00000047  00000+0  00000+0 0  9992
2 29155   0.6263  96.9533 0003604  88.7384 327.8602  1.00270320 28831
DMSP 5D-3 F17 (USA 191) 
1 29522U 06050A   22178.76156581 -.00000022  00000+0  11388-4 0  9999
2 29522  98.7657 193.6237 0008903 227.7977 132.2441 14.14102547807366
FENGYUN 3A              
1 32958U 08026A   22178.76453304  .00000034  00000+0  36290-4 0  9995
2 32958  98.5029 140.9750 0008771   1.6673 358.4531 14.18724510729790
FENGYUN 2E              
1 33463U 08066A   22178.71126992 -.00000199  00000+0  00000+0 0  9994
2 33463   5.9291  65.2690 0002566  17.1370 175.7406  1.00280017 49544
NOAA 19                 
1 33591U 09005A   22178.76137150  .00000127  00000+0  93633-4 0  9992
2 33591  99.1468 213.1145 0014393 155.4357 204.7503 14.12581492689907
GOES 14                 
1 35491U 09033A   22178.55169042 -.00000082  00000+0  00000+0 0  9998
2 35491   0.3432  95.4154 0012632 116.5134 157.6248  1.00270720 47563
METEOR-M 1              
1 35865U 09049A   22178.66662948  .00000034  00000+0  34520-4 0  9990
2 35865  98.5284 148.8076 0002216 165.2001 194.9243 14.22340941663136
DMSP 5D-3 F18 (USA 210) 
1 35951U 09057A   22178.73927374  .00000163  00000+0  10946-3 0  9998
2 35951  98.7220 157.8719 0012236  60.7069 299.5325 14.13517195654561
GOES 15                 
1 36411U 10008A   22178.51785766  .00000065  00000+0  00000+0 0  9998
2 36411   0.3158 102.0598 0001928  14.5149 216.9697  1.00271159 45121
COMS 1                  
1 36744U 10032A   22178.50435295 -.00000337  00000+0  00000+0 0  9995
2 36744   1.0954  92.6578 0000679   9.7558 122.8800  1.00271302 36543
FENGYUN 3B              
1 37214U 10059A   22178.68080337  .00000024  00000+0  36839-4 0  9995
2 37214  99.0910 184.8357 0021705 329.2474  30.7418 14.14258382602402
SUOMI NPP               
1 37849U 11061A   22178.77148703  .00000020  00000+0  30174-4 0  9997
2 37849  98.7330 117.1805 0001062  86.1883 329.2301 14.19530652552658
FENGYUN 2F              
1 38049U 12002A   22178.50112589 -.00000353  00000+0  00000+0 0  9990
2 38049   3.8163  79.6375 0001954   9.1706 119.3243  1.00274432 38339
METEOSAT-10 (MSG-3)     
1 38552U 12035B   22178.26540503  .00000068  00000+0  00000+0 0  9991
2 38552   1.5362  41.7625 0000301 113.1467 225.1870  1.00274521 36303
METOP-B                 
1 38771U 12049A   22178.77163583  .00000053  00000+0  44022-4 0  9995
2 38771  98.6950 238.3716 0001668  70.8286  37.0617 14.21491886507197
FENGYUN 3C              
1 39260U 13052A   22178.72863956  .00000052  00000+0  47495-4 0  9996
2 39260  98.4528 206.3223 0009896 242.9768 117.0392 14.15928541453371
METEOR-M 2              
1 40069U 14037A   22178.74649218 -.00000013  00000+0  13395-4 0  9994
2 40069  98.4306 196.0815 0004631 301.1317  58.9400 14.20711514413326
HIMAWARI-8              
1 40267U 14060A   22178.50679507 -.00000267  00000+0  00000+0 0  9993
2 40267   0.0350 103.3767 0000549  24.8604 110.4513  1.00270824 28210
